#dP2026  1 14  0  0  0.00000000     289 d+D   IGc20 FIT AIUB
## 2401 259200.00000000   300.00000000 61054 0.0000000000000
+  122   G01G02G03G04G05G06G07G08G09G10G11G12G13G14G15G16G17
+        G18G19G21G22G23G24G25G26G27G28G29G30G31G32R02R03R04
+        R05R06R07R08R09R11R12R14R15R16R17R18R19R20R21R22R24
+        R26R28E02E03E04E05E06E07E08E09E10E11E12E13E14E15E18
+        E19E21E23E25E26E27E29E30E31E33E34E36C06C07C08C09C10
+        C11C12C13C14C16C19C20C21C22C23C24C25C26C27C28C29C30
+        C32C33C34C35C36C37C38C39C40C41C42C43C44C45C47C48C49
+        J02J03J04  0  0  0  0  0  0  0  0  0  0  0  0  0  0
++         5  5  5  5  5  5  5  5  5  5  5  5  5  5  5  5  5
++         5  5  5  5  5  5  5  5  5  5  5  5  5  5  5  5  5
++         5  5  5  5  5  5  5  5  5  5  5  5  5  5  5  5  5
++         5  6  5  5  5  5  5  5  5  5  5  5  5  5  5  5  5
++         5  5  5  5  5  5  5  5  5  5  5  5  5  5  5  5  5
++         5  5  5  5  5  5  5  5  5  5  5  5  5  5  5  5  5
++         5  5  5  5  5  5  5  5  5  5  5  5  5  5  5  5  5
++         5  5  8  0  0  0  0  0  0  0  0  0  0  0  0  0  0
%c M  cc GPS ccc cccc cccc cccc cccc ccccc ccccc ccccc ccccc
%c cc cc ccc ccc cccc cccc cccc cccc ccccc ccccc ccccc ccccc
%f  1.2500000  1.025000000  0.00000000000  0.000000000000000
%f  0.0000000  0.000000000  0.00000000000  0.000000000000000
%i    0    0    0    0      0      0      0      0         0
%i    0    0    0    0      0      0      0      0         0
/* Center for Orbit Determination in Europe (CODE)                              
/* MGEX orbits and clocks for year-day 2026-0140                                
/* Middle day of a 3-day long-arc multi-GNSS solution                           
/* Systems considered: GPS/GLONASS/Galileo/BeiDou/QZSS                          
/* Product reference - DOI 10.48350/197028                                      
/* PCV:IGS20_2401 OL/AL:FES2014b NONE     YN ORB:CoN CLK:CoN                    
*  2026  1 14  6 55  0.00000000
PG01 -15004.729895  21849.602850    991.758621    344.088320
PG02 -16782.716869  15939.013507  12934.752481     16.261310
PG03 -14851.044787  12195.919684 -18473.776087    598.966284
PG04  -6124.199521  16662.480996 -19672.968966     38.060895
PG05  25647.907482  -4955.154995   4745.039763   -227.247992
PG06  10553.742874  10584.136029 -21867.464039   -602.212899
PG07  -2728.907626  23435.653518  12372.968202   -135.036586
PG08 -14251.724516   6446.507696  21315.726545    504.452227
PG09   3619.180007  22688.335180 -13352.039432    770.240364
PG10 -17364.443755 -11057.738179  17239.690476   -582.391213
PG11  17958.756395  -4142.499590 -19045.091132   -474.823190
PG12  19068.509041 -10156.593674 -15730.618116   -606.516795
PG13  16159.577408   2223.960413  20748.830079    689.708191
PG14  14647.988121  13059.065042  18105.736095    728.669241
PG15  12709.789346  -8734.488121  21086.394714    376.489471
PG16 -26742.714317   -943.934897   1089.666618    187.520652
PG17  13408.611961  22665.898810  -1684.490535    -32.039669
PG18   2280.690726 -22609.256273  13579.478945   -451.431820
PG19  16549.874472  18730.027194  -9791.794796    685.480557
PG21  26112.865421   2785.388221  -4057.390634    379.910205
PG22  19352.820356  11373.490978  14275.611190    -58.981597
PG23  -2997.618580 -14502.929051  22136.312764    599.205042
PG24  14655.748499 -20256.559310   7861.086789   -163.593709
PG25   5523.219548 -15512.511508 -21184.228807    450.091874
PG26 -23801.730290  -5521.959483 -11127.118361   -311.023051
PG27 -18456.455960  -4989.932248  18266.413794    -18.319921
PG28 -10284.432866 -12313.563212 -21170.344641   -611.474767
PG29     27.852458 -22175.978674 -14551.639250   -393.283124
PG30   5461.726338  18465.085393  18368.218808     87.252320
PG31 -16557.404626  -1185.287898 -21078.837311   -172.714207
PG32 -15914.894933 -21065.616378  -3484.161876   -163.903605
PR02   8233.103028  17415.774409 -16629.082479     12.639683
PR03  19608.893413  16233.858109    991.830432    136.805169
PR04  18489.565317   6350.101568  16407.381735    332.014078
PR05   7914.983651  -7107.364638  23197.752602    162.016495
PR06  -7368.783596 -17063.153896  17492.706837     22.814005
PR07 -19497.268369 -16484.903107   -497.693033    117.340736
PR08 -18525.660754  -5924.992465 -16462.264353     -2.467393
PR09   2816.999810 -12817.577296 -21872.883739    301.969313
PR11 -23745.125621   4434.085362  -8160.876106     11.830075
PR12 -19625.642533  12404.525971  10592.537336     64.047190
PR14  14369.252263   5275.600073  20415.750474     31.081271
PR15  23990.659802  -4883.229215   7189.303790     60.183037
PR16  19633.626453 -12343.774712 -10662.551271     44.005601
PR17   6917.875813  13851.602170 -20273.056580    261.582467
PR18  11257.234603  -3209.203950 -22650.907803    242.161393
PR19  10484.694659 -19609.210208 -12454.426484     29.355789
PR20   3217.957747 -24815.853477   5087.775530    227.848210
PR21  -5441.934316 -16427.974794  18732.173287   -272.102468
PR22 -11871.858716   4576.790204  22134.557770    105.675520
PR24  -1687.496445  24770.366012  -5866.467768   -142.788456
PR26 -19583.859938  -8075.437944 -14173.135301   -259.124907
PR28   3445.587034 -24670.012451   5608.661503 999999.999999
PE02 -11595.032113  14505.914066  23041.234746     10.238348
PE03  -4593.375049  22637.874310 -18522.755834      6.436168
PE04 -10044.902847 -27792.754070   1647.452596    -41.579165
PE05 -16345.297100   4267.142739 -24304.444198      5.018163
PE06 -15572.446589 -23944.114992  -7793.857923   -219.241852
PE07  18564.383686  16797.887508  15802.221852    -38.756149
PE08   9821.537177  27864.919732  -1911.333232    -73.150787
PE09 -18433.899250 -16863.343858 -15865.209879   -172.508936
PE10  -8754.394930 -14278.958620  24409.557173   -764.494769
PE11 -16499.405543  -4430.786313  24167.520296   3583.953113
PE12   -847.722234 -20836.805775  21020.006659    -18.648156
PE13  16147.146416   4859.735109 -24317.582586    -46.439223
PE14   -926.192817 -21603.795761 -10993.831109   6276.856771
PE15    186.723713  21163.795754 -20673.748491   -228.317436
PE18  11446.986969  29924.603804   4347.319374   2336.737945
PE19   5465.785685 -21802.033814  19266.257044   2633.771786
PE21  27283.528154  -3676.771424 -10875.239453   -714.817743
PE23  11464.512988 -14568.820031 -23088.805505    -21.937492
PE25 -27525.311232   3296.966233  10386.881944     21.830767
PE26  22313.691561 -14068.778867 -13423.118672    190.790643
PE27  26848.827317   9549.094501   7973.453190   -879.460222
PE29  16423.879424  -4517.103422  24204.136641   -169.029265
PE30  11176.344402  16920.816470  21538.590772   -624.974737
PE31 -10582.808926 -16949.432990 -21843.101472   -112.194926
PE33  15719.875691 -24639.731361   4706.461766     -1.521696
PE34 -15543.054689  24709.730624  -4901.937221   -229.600092
PE36 -22285.630073  13814.682107  13731.580709   -508.809365
PC06 -17158.897048  36618.415231  11489.516560     37.642381
PC07  -4080.026525  34173.423641  24682.950513    457.713775
PC08 -10556.012833  18500.098796 -36407.810652   -647.276086
PC09 -10541.032324  35372.791541  20273.180463    218.215765
PC10   3920.924121  37588.203573  19697.303263   -402.884611
PC11  -9548.515444 -21194.336586  15521.342368    825.892107
PC12   1862.670592 -27815.187854  -1424.277267    187.668452
PC13  -2865.428850  20873.901486 -36300.320402   -278.747186
PC14 -20448.312919 -17563.421973   7108.861386   -297.409631
PC16 -17923.020742  36435.521725  10892.643529   -865.079691
PC19  24606.633935  13037.344399   2081.528321   -962.898231
PC20  14695.560555  19335.297467 -13767.617862   -952.021017
PC21   5649.774693 -14483.848015  23185.082633   -891.306834
PC22  21295.662662  -1163.069392  18005.930297    430.363009
PC23 -25396.631776  10478.235473  -4933.075059   -509.488764
PC24  -1856.510797 -17238.434855 -21889.329762      1.165239
PC25 -20447.101010  -3416.794306 -18711.331537    967.242341
PC26  15028.205960 -19799.154608 -12679.549135   -581.379497
PC27  -7936.686744  24384.312041  10979.349404    581.766649
PC28 -14819.303264  11443.789729  20696.647672    471.196369
PC29  14651.266905  13217.941370 -19735.633691    549.921017
PC30   5718.971736  26488.198506  -6623.885004    364.380995
PC32  -5590.365495  14497.528971 -23166.539502   -963.240940
PC33 -24649.579318 -12911.949011  -1963.345599   -953.362449
PC34  -5703.760159 -26518.263825   6591.253765    862.513751
PC35  14937.333942 -10261.677887 -21248.209657   -231.587663
PC36  20159.884991   4118.519049  18852.657500    305.619568
PC37 -16584.427243  19226.647466  11608.649655   -908.005568
PC38 -19927.002678  18954.660988 -31897.458707    268.551024
PC39 -21189.264282  36201.570675   2553.504410    -18.087234
PC40  -7096.252620  30967.982148  27898.036162   -199.594148
PC41 -21970.299852    266.606428 -17132.866068   -945.782360
PC42 -12577.538810 -19428.141920  15604.124315   -918.314055
PC43 -15137.082947 -11832.650193  20233.738468    129.610967
PC44   7045.256727 -24670.228246 -11032.838704    901.616619
PC45  25489.543217  -9831.630479   5605.894589   -645.031574
PC47  11024.826763  20327.436707 -15602.629279   -439.847749
PC48  20052.249297  17771.052787  -7792.075508    694.171535
PC49 -16143.696320   -861.070804  22739.796609   -598.310888
PJ02 -29529.689046  20967.591078  26837.161273     -0.784510
PJ03 -33324.443702  25697.807050   8828.198164     -0.296791
PJ04 -20338.075733  23510.290257 -23527.066495     -3.380975
EOF
